STARLETTE               
1 07646U 75010A   25022.34217075 -.00000132  00000+0  78532-5 0  9992
2 07646  49.8256 320.9814 0205685 175.4832 184.7978 13.82338987523873
LAGEOS 1                
1 08820U 76039A   25022.27605552  .00000019  00000+0  00000+0 0  9994
2 08820 109.8555   4.3267 0044161  51.1968 312.5672  6.38664948880513
AJISAI (EGS)            
1 16908U 86061A   25022.45914765 -.00000082  00000+0  11165-3 0  9994
2 16908  50.0091 277.8696 0011270 321.3257  91.6352 12.44510116416798
COSMOS 1989 (ETALON 1)  
1 19751U 89001C   25022.29265052 -.00000030  00000+0  00000+0 0  9995
2 19751  64.6577  89.7071 0023711 216.5549 108.6174  2.13156172280542
COSMOS 2024 (ETALON 2)  
1 20026U 89039C   25022.35469929 -.00000073  00000+0  00000+0 0  9996
2 20026  65.2323 328.0802 0019862 216.2996 226.1915  2.13204481277611
LAGEOS 2                
1 22195U 92070B   25022.24808101 -.00000009  00000+0  00000+0 0  9990
2 22195  52.6376 229.5618 0137117 323.6385 162.8008  6.47294233762340
STELLA                  
1 22824U 93061B   25022.49574933 -.00000018  00000+0  11473-4 0  9991
2 22824  98.8482  77.8369 0005351 284.6652 186.2345 14.27447361631914
LARETS                  
1 27944U 03042F   25022.49526710  .00000307  00000+0  68490-4 0  9990
2 27944  98.3428 171.0521 0012127 184.9033 175.2052 14.63689154138652
LARES                   
1 38077U 12006A   25022.47979977 -.00000047  00000+0 -53634-4 0  9991
2 38077  69.4906  84.5849 0008583 180.6681 179.4336 12.54931827592992
LARES-2                 
1 53105U 22080A   25022.29558976 -.00000006  00000+0  00000+0 0  9993
2 53105  70.1340 120.5527 0004818  87.4902 272.6277  6.38965152 59028
